IRIDIUM 112             
1 41925U 17003J   24106.42363684  .00000401  00000+0  13629-3 0  9999
2 41925  86.3962  59.5965 0002292  92.3784 267.7674 14.34219746379643
IRIDIUM 111             
1 41926U 17003K   24106.41095394  .00000094  00000+0  26331-4 0  9992
2 41926  86.3965  59.6550 0002567  88.2280 271.9210 14.34217135379629
IRIDIUM 113             
1 42803U 17039A   24106.60023389  .00000200  00000+0  64292-4 0  9999
2 42803  86.3921 293.3656 0002287  92.9135 267.2322 14.34220009357587
IRIDIUM 123             
1 42804U 17039B   24106.57193032  .00000029  00000+0  34362-5 0  9994
2 42804  86.3958 324.8925 0002216  87.2851 272.8598 14.34215685356345
IRIDIUM 120             
1 42805U 17039C   24106.59388889  .00000188  00000+0  60092-4 0  9997
2 42805  86.3909 293.2533 0002107  88.4472 271.6965 14.34220862357571
IRIDIUM 115             
1 42806U 17039D   24106.59774734  .00000382  00000+0  10761-3 0  9999
2 42806  86.4446 293.2666 0002282  92.0404 268.1058 14.43275355359940
IRIDIUM 118             
1 42807U 17039E   24106.60364472  .00000070  00000+0  17969-4 0  9998
2 42807  86.3961 324.8809 0002039  89.5792 270.5637 14.34217300356340
IRIDIUM 117             
1 42808U 17039F   24106.55290380  .00000100  00000+0  28556-4 0  9997
2 42808  86.3960 324.8672 0002370  86.6098 273.5368 14.34218356356361
